GLOBALSTAR M067         
1 32263U 07048A   25064.27031546 -.00000077  00000+0  14775-3 0  9991
2 32263  51.9755 340.0022 0001404 101.0526  71.1714 12.40667104796830
GLOBALSTAR M070         
1 32264U 07048B   25063.79905881 -.00000094  00000+0  53314-4 0  9992
2 32264  51.9741  86.5104 0000277 150.1752  21.1646 12.62313295800481
GLOBALSTAR M066         
1 32265U 07048C   25064.23595145 -.00000081  00000+0  11538-3 0  9998
2 32265  51.9665 326.5056 0001829  22.8392 151.1779 12.35250383803403
GLOBALSTAR M068         
1 32266U 07048D   25064.25240933 -.00000091  00000+0  73415-4 0  9997
2 32266  51.9866 259.0855 0000048 184.3005 347.7271 12.62816407804711
GLOBALSTAR M079         
1 37188U 10054A   25064.20119678 -.00000104  00000+0 -29934-5 0  9996
2 37188  52.0028  96.3363 0000627  92.7612 295.7287 12.62271484664001
GLOBALSTAR M074         
1 37189U 10054B   25064.57524145 -.00000105  00000+0 -60425-5 0  9997
2 37189  52.0003  94.5371 0000520 131.3243  36.7226 12.62267022664049
GLOBALSTAR M076         
1 37190U 10054C   25064.51852949 -.00000102  00000+0  10500-4 0  9993
2 37190  52.0017  94.8672 0000786 115.4259  37.5720 12.62278286664049
GLOBALSTAR M077         
1 37191U 10054D   25063.92168282 -.00000112  00000+0 -48640-4 0  9996
2 37191  52.0077  53.5129 0000377  93.9558 283.1447 12.62271292663980
